FENGYUN 1C DEB          
1 30310U 99025ZX  17345.82903090  .00000088  00000-0  65878-4 0  9997
2 30310  98.9970  44.0103 0256066 260.3796  96.8357 14.02380392557165
